{
  "norad_id": 66465,
  "name": "STARLINK-35448",
  "history": [
    {
      "epoch": "2026-03-28T15:36:13.652928",
      "apogee_km": 483.8992658370071,
      "perigee_km": 482.01109326919413,
      "latitude_deg": 27.136795955897956,
      "longitude_deg": 168.91516992007382,
      "semi_major_axis_km": 6861.0921795531,
      "eccentricity": 0.0001376,
      "inclination_deg": 43.0015,
      "raan_deg": 189.3118,
      "arg_perigee_deg": 276.6828,
      "mean_anomaly_deg": 83.3867,
      "mean_motion_rev_day": 15.27611365
    },
    {
      "epoch": "2026-03-28T23:27:00.889632",
      "apogee_km": 483.2822805775413,
      "perigee_km": 482.77318215447394,
      "latitude_deg": 42.42631977772605,
      "longitude_deg": -159.69901152001694,
      "semi_major_axis_km": 6861.164731366008,
      "eccentricity": 3.71e-05,
      "inclination_deg": 43.0058,
      "raan_deg": 187.4639,
      "arg_perigee_deg": 279.9268,
      "mean_anomaly_deg": 80.1542,
      "mean_motion_rev_day": 15.27587135
    }
  ]
}